[{"OBJECT_NAME":"CHUTIAN-2 A","OBJECT_ID":"2025-256A","EPOCH":"2026-03-07T06:10:07.519008","MEAN_MOTION":14.50085622,"ECCENTRICITY":0.0012402,"INCLINATION":98.2606,"RA_OF_ASC_NODE":134.4631,"ARG_OF_PERICENTER":283.9716,"MEAN_ANOMALY":76.0099,"EPHEMERIS_TYPE":0,"CLASSIFICATION_TYPE":"U","NORAD_CAT_ID":66409,"ELEMENT_SET_NO":999,"REV_AT_EPOCH":1712,"BSTAR":0.0001852,"MEAN_MOTION_DOT":6.75e-6,"MEAN_MOTION_DDOT":0},{"OBJECT_NAME":"NOAA 16 DEB","OBJECT_ID":"2000-055GT","EPOCH":"2026-03-08T21:41:06.002880","MEAN_MOTION":14.56664544,"ECCENTRICITY":0.00362466,"INCLINATION":98.989,"RA_OF_ASC_NODE":313.6735,"ARG_OF_PERICENTER":352.2362,"MEAN_ANOMALY":7.8268,"EPHEMERIS_TYPE":0,"CLASSIFICATION_TYPE":"U","NORAD_CAT_ID":41291,"ELEMENT_SET_NO":999,"REV_AT_EPOCH":53610,"BSTAR":0.0029283292,"MEAN_MOTION_DOT":0.00013157,"MEAN_MOTION_DDOT":0}]
